FLOCK 2K-32             
1 42870U 17042AX  17288.20948400  .00015813  00000-0  47931-3 0  9993
2 42870  96.9948 192.2796 0009666 281.3660  78.6498 15.34167158 14049
FLOCK 2K-29             
1 42871U 17042AY  17288.20828806  .00016284  00000-0  49293-3 0  9997
2 42871  96.9951 192.2827 0009790 280.4676  79.5464 15.34202045 14042
FLOCK 2K-30             
1 42872U 17042AZ  17288.53368440  .00009611  00000-0  29181-3 0  9997
2 42872  96.9950 192.5908 0009740 280.4231  79.5915 15.34231277 14081
FLOCK 2K-44             
1 42873U 17042BA  17288.53101035  .00014831  00000-0  44981-3 0  9998
2 42873  96.9952 192.5965 0010548 266.2854  93.7184 15.34151484 14096
FLOCK 2K-43             
1 42874U 17042BB  17288.21378680  .00003537  00000-0  11119-3 0  9994
2 42874  96.9951 192.2749 0011020 267.5030  92.4952 15.33537592 14040
FLOCK 2K-41             
1 42875U 17042BC  17288.52953265  .00009204  00000-0  28020-3 0  9993
2 42875  96.9949 192.5953 0010697 267.7940  92.2079 15.34149099 14094
FLOCK 2K-36             
1 42876U 17042BD  17288.52633333  .00008018  00000-0  24426-3 0  9993
2 42876  96.9953 192.6024 0010838 267.1119  92.8884 15.34167830 14092
FLOCK 2K-35             
1 42877U 17042BE  17288.20223881  .00016008  00000-0  48491-3 0  9998
2 42877  96.9948 192.2899 0010734 268.6819  91.3195 15.34172471 14042
FLOCK 2K-34             
1 42878U 17042BF  17288.52505244  .00010504  00000-0  31878-3 0  9996
2 42878  96.9948 192.5988 0010767 266.7324  93.2688 15.34210864 14093
FLOCK 2K-33             
1 42879U 17042BG  17288.19615594  .00009521  00000-0  28934-3 0  9996
2 42879  96.9947 192.2941 0010921 268.0663  91.9330 15.34193139 14041
FLOCK 2K-28             
1 42880U 17042BH  17288.27595105  .00003402  00000-0  10697-3 0  9991
2 42880  96.9952 192.3420 0011077 267.7007  92.2968 15.33556886 14056
LEMUR-2-ARTFISCHER      
1 42881U 17042BJ  17288.59532661  .00006570  00000-0  20219-3 0  9995
2 42881  96.9979 192.6869 0011601 269.5509  90.4406 15.33901926 14096
FLOCK 2K-27             
1 42882U 17042BK  17288.32450230  .00010790  00000-0  32761-3 0  9992
2 42882  96.9950 192.4241 0011002 268.4597  91.5387 15.34186913 14067
FLOCK 2K-26             
1 42883U 17042BL  17288.19125300  .00009952  00000-0  30248-3 0  9991
2 42883  96.9948 192.3021 0011017 267.9293  92.0689 15.34173169 14041
FLOCK 2K-25             
1 42884U 17042BM  17288.52328188  .00010762  00000-0  32695-3 0  9997
2 42884  96.9949 192.6004 0010829 266.6221  93.3784 15.34171053 14099
FLOCK 2K-20             
1 42885U 17042BN  17288.51601561  .00003636  00000-0  11202-3 0  9999
2 42885  96.9951 192.6147 0011075 266.7910  93.2067 15.34166274 14093
FLOCK 2K-19             
1 42886U 17042BP  17287.80155825  .00008709  00000-0  26536-3 0  9990
2 42886  96.9950 191.9316 0011132 269.8975  90.0993 15.34133809 13980
FLOCK 2K-18             
1 42887U 17042BQ  17288.18351468  .00005974  00000-0  18126-3 0  9991
2 42887  96.9950 192.3117 0011339 266.2320  93.7628 15.34396047 14047
FLOCK 2K-17             
1 42888U 17042BR  17288.38184382  .00005247  00000-0  16009-3 0  9994
2 42888  96.9946 192.4898 0011257 265.9946  94.0011 15.34273016 14072
FLOCK 2K-16             
1 42889U 17042BS  17288.44971944  .00004472  00000-0  13672-3 0  9992
2 42889  96.9950 192.5549 0010893 265.9868  94.0131 15.34291622 14087
FLOCK 2K-15             
1 42890U 17042BT  17288.50876640  .00003808  00000-0  11636-3 0  9998
2 42890  96.9955 192.6275 0011268 264.5240  95.4718 15.34395822 14091
FLOCK 2K-13             
1 42891U 17042BU  17288.18842631  .00006054  00000-0  18466-3 0  9990
2 42891  96.9949 192.3060 0011164 264.2506  95.7466 15.34220146 14045
FLOCK 2K-14             
1 42892U 17042BV  17288.38010346  .00003710  00000-0  11363-3 0  9998
2 42892  96.9947 192.4921 0011269 264.9181  95.0777 15.34333130 14072
FLOCK 2K-12             
1 42893U 17042BW  17288.50720009  .00003987  00000-0  12137-3 0  9993
2 42893  96.9952 192.6258 0011268 263.6216  96.3745 15.34484799 14097
FLOCK 2K-11             
1 42894U 17042BX  17288.51143428  .00004929  00000-0  15050-3 0  9993
2 42894  96.9953 192.6216 0011262 261.8596  98.1370 15.34275641 14096
FLOCK 2K-10             
1 42895U 17042BY  17288.18079062  .00003757  00000-0  11504-3 0  9997
2 42895  96.9947 192.3113 0011368 263.8124  96.1825 15.34334485 14049
FLOCK 2K-09             
1 42896U 17042BZ  17288.30825626  .00004082  00000-0  12456-3 0  9996
2 42896  96.9951 192.4428 0011065 261.8590  98.1399 15.34395592 14239
FLOCK 2K-06             
1 42897U 17042CA  17288.53970449  .00014250  00000-0  43246-3 0  9995
2 42897  96.9950 192.5850 0009569 279.7049  80.3113 15.34149942 14099
SILU-1 (SILKROAD 1)     
1 42903U 17021F   17288.48107639  .00027511  00000-0  31268-3 0  9992
2 42903  42.7823 359.3643 0006923  12.3309 177.6677 15.61735700 11544
